COSMOS 2361 [-]         
1 25590U 98076A   22304.69602514  .00000083  00000+0  73633-4 0  9991
2 25590  82.9306 105.4579 0031372 187.5195 183.1863 13.73032326194930
COSMOS 2378 [-]         
1 26818U 01023A   22304.79828500  .00000041  00000+0  26657-4 0  9995
2 26818  82.9242 123.1802 0033915 133.8231 237.5803 13.73978078 73037
COSMOS 2389 [-]         
1 27436U 02026A   22304.82387627  .00000088  00000+0  76168-4 0  9993
2 27436  82.9511  69.0841 0046212 356.9205 167.4087 13.74985540 25100
COSMOS 2398 [-]         
1 27818U 03023A   22304.55120208  .00000075  00000+0  65837-4 0  9992
2 27818  82.9526  31.3251 0032045  36.1301 335.7525 13.72220772972059
COSMOS 2407 [+]         
1 28380U 04028A   22304.99831392  .00000071  00000+0  57504-4 0  9992
2 28380  82.9602 335.3422 0039092 357.7862  80.2356 13.76124865917939
COSMOS 2414 [+]         
1 28521U 05002A   22304.81604055  .00000098  00000+0  68681-4 0  9994
2 28521  82.9481 325.1417 0041196 143.6985 216.6986 13.87671742900151
COSMOS 2429 [-]         
1 32052U 07038A   22304.74441454  .00000094  00000+0  82059-4 0  9994
2 32052  82.9771 101.9008 0037847 335.5074  24.4283 13.74973420759636
COSMOS 2454 [-]         
1 35635U 09039A   22304.47972323  .00000076  00000+0  49002-4 0  9992
2 35635  82.9532 311.4869 0020780  89.5118  64.2782 13.89699253673587
COSMOS 2463 [+]         
1 36519U 10017A   22304.84992050  .00000060  00000+0  49360-4 0  9992
2 36519  82.9582 142.6423 0035640 202.7865 168.2686 13.71483497626390
